{
  "norad_id": 61014,
  "name": "GEESAT-3 04",
  "history": [
    {
      "epoch": "2026-04-10T06:20:41.348544Z",
      "apogee_km": 621.5855653032631,
      "perigee_km": 617.9288856546809,
      "latitude_deg": 1.8916862271730658e-05,
      "longitude_deg": 14.943227208956845,
      "height_km": 622.1037217215367,
      "semi_major_axis_km": 6997.894225478972,
      "eccentricity": 0.00026127,
      "inclination_deg": 49.9985,
      "raan_deg": 308.6162,
      "arg_perigee_deg": 170.5151,
      "mean_anomaly_deg": 189.5837,
      "mean_motion_rev_day": 14.83036027
    },
    {
      "epoch": "2026-04-11T19:32:20.412096Z",
      "apogee_km": 621.600641789284,
      "perigee_km": 617.8847676660735,
      "latitude_deg": -2.108709179359184e-05,
      "longitude_deg": 168.3278151277446,
      "height_km": 622.140122307967,
      "semi_major_axis_km": 6997.8797047276785,
      "eccentricity": 0.0002655,
      "inclination_deg": 49.9983,
      "raan_deg": 301.4411,
      "arg_perigee_deg": 176.259,
      "mean_anomaly_deg": 183.8368,
      "mean_motion_rev_day": 14.83040643
    },
    {
      "epoch": "2026-04-13T00:38:50.676288Z",
      "apogee_km": 621.582008442555,
      "perigee_km": 617.8823749582871,
      "latitude_deg": 1.5766658673256008e-06,
      "longitude_deg": 84.8905926734125,
      "height_km": 622.1255777050064,
      "semi_major_axis_km": 6997.869191700421,
      "eccentricity": 0.00026434,
      "inclination_deg": 49.9991,
      "raan_deg": 295.8254,
      "arg_perigee_deg": 180.8418,
      "mean_anomaly_deg": 179.2516,
      "mean_motion_rev_day": 14.83043985
    },
    {
      "epoch": "2026-04-14T20:18:35.561088Z",
      "apogee_km": 621.6021341623218,
      "perigee_km": 617.8288920872455,
      "latitude_deg": 3.944801775540631e-05,
      "longitude_deg": 139.73755228614255,
      "height_km": 622.127951144313,
      "semi_major_axis_km": 6997.852513124783,
      "eccentricity": 0.0002696,
      "inclination_deg": 49.999,
      "raan_deg": 287.4025,
      "arg_perigee_deg": 187.9894,
      "mean_anomaly_deg": 172.1002,
      "mean_motion_rev_day": 14.83049287
    },
    {
      "epoch": "2026-04-15T20:34:00.256224Z",
      "apogee_km": 621.608454774575,
      "perigee_km": 617.8044270800874,
      "latitude_deg": 5.8413832189167686e-05,
      "longitude_deg": 130.20907983023451,
      "height_km": 622.1119533511828,
      "semi_major_axis_km": 6997.843440927331,
      "eccentricity": 0.0002718,
      "inclination_deg": 49.9989,
      "raan_deg": 282.7231,
      "arg_perigee_deg": 191.8916,
      "mean_anomaly_deg": 168.1959,
      "mean_motion_rev_day": 14.83052171
    },
    {
      "epoch": "2026-04-16T20:49:24.801024Z",
      "apogee_km": 621.6221079491188,
      "perigee_km": 617.7649037742876,
      "latitude_deg": 3.333319795751149e-05,
      "longitude_deg": 120.68109870831974,
      "height_km": 622.0939953823074,
      "semi_major_axis_km": 6997.830505861703,
      "eccentricity": 0.0002756,
      "inclination_deg": 49.9988,
      "raan_deg": 278.0436,
      "arg_perigee_deg": 195.7734,
      "mean_anomaly_deg": 164.3119,
      "mean_motion_rev_day": 14.83056283
    },
    {
      "epoch": "2026-04-17T22:41:50.810208Z",
      "apogee_km": 621.6048213084832,
      "perigee_km": 617.7597995101869,
      "latitude_deg": -2.669432861318753e-05,
      "longitude_deg": 86.51837539178202,
      "height_km": 622.0349508449162,
      "semi_major_axis_km": 6997.819310409335,
      "eccentricity": 0.00027473,
      "inclination_deg": 49.9987,
      "raan_deg": 273.0519,
      "arg_perigee_deg": 199.8802,
      "mean_anomaly_deg": 160.2029,
      "mean_motion_rev_day": 14.83059842
    },
    {
      "epoch": "2026-04-18T19:43:11.754912Z",
      "apogee_km": 621.6075935422277,
      "perigee_km": 617.7392039537999,
      "latitude_deg": -4.875784546759362e-06,
      "longitude_deg": 126.2622612912448,
      "height_km": 621.9945876441692,
      "semi_major_axis_km": 6997.8103987480135,
      "eccentricity": 0.0002764,
      "inclination_deg": 49.9987,
      "raan_deg": 268.9964,
      "arg_perigee_deg": 203.3094,
      "mean_anomaly_deg": 156.7719,
      "mean_motion_rev_day": 14.83062675
    },
    {
      "epoch": "2026-04-19T19:58:35.738976Z",
      "apogee_km": 621.6147517210584,
      "perigee_km": 617.7113788446431,
      "latitude_deg": 3.098184638717861e-05,
      "longitude_deg": 116.73677084900136,
      "height_km": 621.9417710190477,
      "semi_major_axis_km": 6997.8000652828505,
      "eccentricity": 0.0002789,
      "inclination_deg": 49.9986,
      "raan_deg": 264.317,
      "arg_perigee_deg": 207.3402,
      "mean_anomaly_deg": 152.739,
      "mean_motion_rev_day": 14.8306596
    },
    {
      "epoch": "2026-04-20T13:45:53.199360Z",
      "apogee_km": 621.625943598111,
      "perigee_km": 617.6870256015,
      "latitude_deg": 1.5477041975919852e-05,
      "longitude_deg": -154.24832990567577,
      "height_km": 621.9025808046498,
      "semi_major_axis_km": 6997.793484599805,
      "eccentricity": 0.00028144,
      "inclination_deg": 49.9986,
      "raan_deg": 260.8852,
      "arg_perigee_deg": 210.2708,
      "mean_anomaly_deg": 149.8068,
      "mean_motion_rev_day": 14.83068052
    },
    {
      "epoch": "2026-04-21T20:29:23.070336Z",
      "apogee_km": 621.6223722921659,
      "perigee_km": 617.6560327405787,
      "latitude_deg": 3.7967535890073e-05,
      "longitude_deg": 97.68769384630744,
      "height_km": 621.8065768355395,
      "semi_major_axis_km": 6997.776202516372,
      "eccentricity": 0.0002834,
      "inclination_deg": 49.9976,
      "raan_deg": 254.9575,
      "arg_perigee_deg": 215.1209,
      "mean_anomaly_deg": 144.9543,
      "mean_motion_rev_day": 14.83073546
    },
    {
      "epoch": "2026-04-22T19:07:44.779584Z",
      "apogee_km": 621.6230109421431,
      "perigee_km": 617.6356836774448,
      "latitude_deg": -4.855063549207525e-06,
      "longitude_deg": 112.80003495778642,
      "height_km": 621.7300450931999,
      "semi_major_axis_km": 6997.766347309794,
      "eccentricity": 0.0002849,
      "inclination_deg": 49.9986,
      "raan_deg": 250.5901,
      "arg_perigee_deg": 218.7337,
      "mean_anomaly_deg": 141.3397,
      "mean_motion_rev_day": 14.83076679
    },
    {
      "epoch": "2026-04-23T12:55:01.693056Z",
      "apogee_km": 621.6214589070469,
      "perigee_km": 617.6202809121905,
      "latitude_deg": -4.019620990226888e-05,
      "longitude_deg": -158.18269728290792,
      "height_km": 621.6663329460293,
      "semi_major_axis_km": 6997.757869909618,
      "eccentricity": 0.00028589,
      "inclination_deg": 49.9987,
      "raan_deg": 247.1584,
      "arg_perigee_deg": 221.436,
      "mean_anomaly_deg": 138.6361,
      "mean_motion_rev_day": 14.83079374
    },
    {
      "epoch": "2026-04-24T19:38:32.617248Z",
      "apogee_km": 621.7490709737667,
      "perigee_km": 617.6525367233944,
      "latitude_deg": 2.1031658644460948e-05,
      "longitude_deg": 93.74916000231224,
      "height_km": 621.5661840637599,
      "semi_major_axis_km": 6997.837803848581,
      "eccentricity": 0.0002927,
      "inclination_deg": 49.9987,
      "raan_deg": 241.2309,
      "arg_perigee_deg": 229.8957,
      "mean_anomaly_deg": 130.1725,
      "mean_motion_rev_day": 14.83053963
    },
    {
      "epoch": "2026-04-25T19:53:57.017760Z",
      "apogee_km": 621.7405213433685,
      "perigee_km": 617.6230047831823,
      "latitude_deg": -2.167197193583487e-05,
      "longitude_deg": 84.22196487913833,
      "height_km": 621.4443841125552,
      "semi_major_axis_km": 6997.818763063276,
      "eccentricity": 0.0002942,
      "inclination_deg": 49.9974,
      "raan_deg": 236.5516,
      "arg_perigee_deg": 233.7724,
      "mean_anomaly_deg": 126.2942,
      "mean_motion_rev_day": 14.83060016
    },
    {
      "epoch": "2026-04-26T20:09:21.058848Z",
      "apogee_km": 621.7281394392339,
      "perigee_km": 617.6036344176791,
      "latitude_deg": 2.272364542956032e-05,
      "longitude_deg": 74.69634481837355,
      "height_km": 621.3132683351737,
      "semi_major_axis_km": 6997.802886928456,
      "eccentricity": 0.0002947,
      "inclination_deg": 49.9974,
      "raan_deg": 231.8723,
      "arg_perigee_deg": 237.7195,
      "mean_anomaly_deg": 122.3458,
      "mean_motion_rev_day": 14.83065063
    },
    {
      "epoch": "2026-04-27T18:47:43.161216Z",
      "apogee_km": 621.7395436997631,
      "perigee_km": 617.5534696060831,
      "latitude_deg": 1.954121910868263e-05,
      "longitude_deg": 89.80717958154028,
      "height_km": 621.1998304425566,
      "semi_major_axis_km": 6997.783506652922,
      "eccentricity": 0.0002991,
      "inclination_deg": 49.9975,
      "raan_deg": 227.505,
      "arg_perigee_deg": 241.2353,
      "mean_anomaly_deg": 118.8285,
      "mean_motion_rev_day": 14.83071224
    },
    {
      "epoch": "2026-04-28T19:03:06.558624Z",
      "apogee_km": 621.7452938305323,
      "perigee_km": 617.5186413740994,
      "latitude_deg": 6.371268410495638e-06,
      "longitude_deg": 80.28400110267971,
      "height_km": 621.0632543695467,
      "semi_major_axis_km": 6997.768967602316,
      "eccentricity": 0.000302,
      "inclination_deg": 49.9975,
      "raan_deg": 222.8255,
      "arg_perigee_deg": 245.2412,
      "mean_anomaly_deg": 114.8212,
      "mean_motion_rev_day": 14.83075846
    },
    {
      "epoch": "2026-04-29T17:41:28.122720Z",
      "apogee_km": 621.7471479452561,
      "perigee_km": 617.484117041542,
      "latitude_deg": -3.690060857530429e-05,
      "longitude_deg": 95.39685094856078,
      "height_km": 620.9288270188827,
      "semi_major_axis_km": 6997.752632493399,
      "eccentricity": 0.0003046,
      "inclination_deg": 49.9975,
      "raan_deg": 218.458,
      "arg_perigee_deg": 248.9132,
      "mean_anomaly_deg": 111.148,
      "mean_motion_rev_day": 14.83081039
    }
  ]
}